CCSDS_OMM_VERS = 2.0
CREATION_DATE  = 
ORIGINATOR     = 

OBJECT_NAME    = UNKNOWN
OBJECT_ID      = 
CENTER_NAME    = EARTH
REF_FRAME      = TEME
TIME_SYSTEM    = UTC
MEAN_ELEMENT_THEORY = SGP/SGP4

EPOCH          = 2025-12-14T19:41:23.263296
MEAN_MOTION    = 12.33556814
ECCENTRICITY   = .0753328
INCLINATION    = 67.5228
RA_OF_ASC_NODE = 196.9680
ARG_OF_PERICENTER = 105.0648
MEAN_ANOMALY   = 263.4912

EPHEMERIS_TYPE = 0
CLASSIFICATION_TYPE = U
NORAD_CAT_ID   = 82272
ELEMENT_SET_NO = 999
REV_AT_EPOCH   = 27219
BSTAR          = .14137E-2
MEAN_MOTION_DOT = .41E-5
MEAN_MOTION_DDOT = 0

CCSDS_OMM_VERS = 2.0
CREATION_DATE  = 
ORIGINATOR     = 

OBJECT_NAME    = UNKNOWN
OBJECT_ID      = 
CENTER_NAME    = EARTH
REF_FRAME      = TEME
TIME_SYSTEM    = UTC
MEAN_ELEMENT_THEORY = SGP/SGP4

EPOCH          = 2025-12-12T17:24:53.740800
MEAN_MOTION    = 14.31337782
ECCENTRICITY   = .0127087
INCLINATION    = 66.6173
RA_OF_ASC_NODE = 148.2102
ARG_OF_PERICENTER = 223.3779
MEAN_ANOMALY   = 135.7264

EPHEMERIS_TYPE = 0
CLASSIFICATION_TYPE = U
NORAD_CAT_ID   = 82295
ELEMENT_SET_NO = 999
REV_AT_EPOCH   = 57972
BSTAR          = .98631E-3
MEAN_MOTION_DOT = .277E-4
MEAN_MOTION_DDOT = 0

CCSDS_OMM_VERS = 2.0
CREATION_DATE  = 
ORIGINATOR     = 

OBJECT_NAME    = UNKNOWN
OBJECT_ID      = 
CENTER_NAME    = EARTH
REF_FRAME      = TEME
TIME_SYSTEM    = UTC
MEAN_ELEMENT_THEORY = SGP/SGP4

EPOCH          = 2025-12-21T17:58:42.909600
MEAN_MOTION    = 13.87106957
ECCENTRICITY   = .0047338
INCLINATION    = 81.9440
RA_OF_ASC_NODE = 355.4087
ARG_OF_PERICENTER = 321.5375
MEAN_ANOMALY   = 217.1786

EPHEMERIS_TYPE = 0
CLASSIFICATION_TYPE = U
NORAD_CAT_ID   = 82303
ELEMENT_SET_NO = 999
REV_AT_EPOCH   = 51567
BSTAR          = .21332E-1
MEAN_MOTION_DOT = .25307E-3
MEAN_MOTION_DDOT = 0

CCSDS_OMM_VERS = 2.0
CREATION_DATE  = 
ORIGINATOR     = 

OBJECT_NAME    = UNKNOWN
OBJECT_ID      = 
CENTER_NAME    = EARTH
REF_FRAME      = TEME
TIME_SYSTEM    = UTC
MEAN_ELEMENT_THEORY = SGP/SGP4

EPOCH          = 2025-12-17T09:52:05.565792
MEAN_MOTION    = 13.54548713
ECCENTRICITY   = .0109048
INCLINATION    = 99.4341
RA_OF_ASC_NODE = 45.0309
ARG_OF_PERICENTER = 295.1442
MEAN_ANOMALY   = 63.8416

EPHEMERIS_TYPE = 0
CLASSIFICATION_TYPE = U
NORAD_CAT_ID   = 82311
ELEMENT_SET_NO = 999
REV_AT_EPOCH   = 55095
BSTAR          = .99611E-3
MEAN_MOTION_DOT = .664E-5
MEAN_MOTION_DDOT = 0

CCSDS_OMM_VERS = 2.0
CREATION_DATE  = 
ORIGINATOR     = 

OBJECT_NAME    = UNKNOWN
OBJECT_ID      = 
CENTER_NAME    = EARTH
REF_FRAME      = TEME
TIME_SYSTEM    = UTC
MEAN_ELEMENT_THEORY = SGP/SGP4

EPOCH          = 2025-12-18T05:36:24.053472
MEAN_MOTION    = 13.15608993
ECCENTRICITY   = .0456181
INCLINATION    = 66.9343
RA_OF_ASC_NODE = 182.1976
ARG_OF_PERICENTER = 162.2452
MEAN_ANOMALY   = 199.5141

EPHEMERIS_TYPE = 0
CLASSIFICATION_TYPE = U
NORAD_CAT_ID   = 82363
ELEMENT_SET_NO = 999
REV_AT_EPOCH   = 29098
BSTAR          = .73533E-3
MEAN_MOTION_DOT = .409E-5
MEAN_MOTION_DDOT = 0

CCSDS_OMM_VERS = 2.0
CREATION_DATE  = 
ORIGINATOR     = 

OBJECT_NAME    = UNKNOWN
OBJECT_ID      = 
CENTER_NAME    = EARTH
REF_FRAME      = TEME
TIME_SYSTEM    = UTC
MEAN_ELEMENT_THEORY = SGP/SGP4

EPOCH          = 2025-12-14T07:42:07.964928
MEAN_MOTION    = 13.98166929
ECCENTRICITY   = .0082881
INCLINATION    = 98.8985
RA_OF_ASC_NODE = 3.3444
ARG_OF_PERICENTER = 335.0264
MEAN_ANOMALY   = 24.6900

EPHEMERIS_TYPE = 0
CLASSIFICATION_TYPE = U
NORAD_CAT_ID   = 82369
ELEMENT_SET_NO = 999
REV_AT_EPOCH   = 55739
BSTAR          = .31609E-3
MEAN_MOTION_DOT = .42E-5
MEAN_MOTION_DDOT = 0

CCSDS_OMM_VERS = 2.0
CREATION_DATE  = 
ORIGINATOR     = 

OBJECT_NAME    = UNKNOWN
OBJECT_ID      = 
CENTER_NAME    = EARTH
REF_FRAME      = TEME
TIME_SYSTEM    = UTC
MEAN_ELEMENT_THEORY = SGP/SGP4

EPOCH          = 2025-12-22T02:10:19.760736
MEAN_MOTION    = 14.81108833
ECCENTRICITY   = .0008774
INCLINATION    = 98.3938
RA_OF_ASC_NODE = 221.2844
ARG_OF_PERICENTER = 97.3523
MEAN_ANOMALY   = 262.8685

EPHEMERIS_TYPE = 0
CLASSIFICATION_TYPE = U
NORAD_CAT_ID   = 82381
ELEMENT_SET_NO = 999
REV_AT_EPOCH   = 51219
BSTAR          = .31611E-2
MEAN_MOTION_DOT = .24591E-3
MEAN_MOTION_DDOT = 0

CCSDS_OMM_VERS = 2.0
CREATION_DATE  = 
ORIGINATOR     = 

OBJECT_NAME    = UNKNOWN
OBJECT_ID      = 
CENTER_NAME    = EARTH
REF_FRAME      = TEME
TIME_SYSTEM    = UTC
MEAN_ELEMENT_THEORY = SGP/SGP4

EPOCH          = 2025-12-21T21:19:24.040416
MEAN_MOTION    = 15.03595197
ECCENTRICITY   = .0009978
INCLINATION    = 86.6636
RA_OF_ASC_NODE = 151.6527
ARG_OF_PERICENTER = 121.5733
MEAN_ANOMALY   = 238.6477

EPHEMERIS_TYPE = 0
CLASSIFICATION_TYPE = U
NORAD_CAT_ID   = 82402
ELEMENT_SET_NO = 999
REV_AT_EPOCH   = 45584
BSTAR          = .46213E-3
MEAN_MOTION_DOT = .635E-4
MEAN_MOTION_DDOT = 0

CCSDS_OMM_VERS = 2.0
CREATION_DATE  = 
ORIGINATOR     = 

OBJECT_NAME    = UNKNOWN
OBJECT_ID      = 
CENTER_NAME    = EARTH
REF_FRAME      = TEME
TIME_SYSTEM    = UTC
MEAN_ELEMENT_THEORY = SGP/SGP4

EPOCH          = 2025-12-05T07:44:44.191680
MEAN_MOTION    = 13.77237008
ECCENTRICITY   = .0056993
INCLINATION    = 66.6579
RA_OF_ASC_NODE = 356.8028
ARG_OF_PERICENTER = 41.8292
MEAN_ANOMALY   = 318.7113

EPHEMERIS_TYPE = 0
CLASSIFICATION_TYPE = U
NORAD_CAT_ID   = 82410
ELEMENT_SET_NO = 999
REV_AT_EPOCH   = 58571
BSTAR          = .28804E-3
MEAN_MOTION_DOT = .214E-5
MEAN_MOTION_DDOT = 0

CCSDS_OMM_VERS = 2.0
CREATION_DATE  = 
ORIGINATOR     = 

OBJECT_NAME    = UNKNOWN
OBJECT_ID      = 
CENTER_NAME    = EARTH
REF_FRAME      = TEME
TIME_SYSTEM    = UTC
MEAN_ELEMENT_THEORY = SGP/SGP4

EPOCH          = 2025-12-22T04:38:59.641440
MEAN_MOTION    = 14.58590177
ECCENTRICITY   = .0054366
INCLINATION    = 74.0085
RA_OF_ASC_NODE = 322.5541
ARG_OF_PERICENTER = 125.5351
MEAN_ANOMALY   = 235.0901

EPHEMERIS_TYPE = 0
CLASSIFICATION_TYPE = U
NORAD_CAT_ID   = 82432
ELEMENT_SET_NO = 999
REV_AT_EPOCH   = 48428
BSTAR          = .39207E-3
MEAN_MOTION_DOT = .1832E-4
MEAN_MOTION_DDOT = 0

CCSDS_OMM_VERS = 2.0
CREATION_DATE  = 
ORIGINATOR     = 

OBJECT_NAME    = UNKNOWN
OBJECT_ID      = 
CENTER_NAME    = EARTH
REF_FRAME      = TEME
TIME_SYSTEM    = UTC
MEAN_ELEMENT_THEORY = SGP/SGP4

EPOCH          = 2025-12-22T12:50:46.863168
MEAN_MOTION    = 15.03811723
ECCENTRICITY   = .000729
INCLINATION    = 85.8709
RA_OF_ASC_NODE = 194.0966
ARG_OF_PERICENTER = 214.3644
MEAN_ANOMALY   = 145.7119

EPHEMERIS_TYPE = 0
CLASSIFICATION_TYPE = U
NORAD_CAT_ID   = 82448
ELEMENT_SET_NO = 999
REV_AT_EPOCH   = 43851
BSTAR          = .40159E-3
MEAN_MOTION_DOT = .5552E-4
MEAN_MOTION_DDOT = 0

CCSDS_OMM_VERS = 2.0
CREATION_DATE  = 
ORIGINATOR     = 

OBJECT_NAME    = UNKNOWN
OBJECT_ID      = 
CENTER_NAME    = EARTH
REF_FRAME      = TEME
TIME_SYSTEM    = UTC
MEAN_ELEMENT_THEORY = SGP/SGP4

EPOCH          = 2025-12-20T13:59:53.887776
MEAN_MOTION    = 12.39702492
ECCENTRICITY   = .0093281
INCLINATION    = 102.1786
RA_OF_ASC_NODE = 310.9466
ARG_OF_PERICENTER = 192.6645
MEAN_ANOMALY   = 167.2071

EPHEMERIS_TYPE = 0
CLASSIFICATION_TYPE = U
NORAD_CAT_ID   = 82453
ELEMENT_SET_NO = 999
REV_AT_EPOCH   = 54703
BSTAR          = .72607E-4
MEAN_MOTION_DOT = -.36E-6
MEAN_MOTION_DDOT = 0

CCSDS_OMM_VERS = 2.0
CREATION_DATE  = 
ORIGINATOR     = 

OBJECT_NAME    = UNKNOWN
OBJECT_ID      = 
CENTER_NAME    = EARTH
REF_FRAME      = TEME
TIME_SYSTEM    = UTC
MEAN_ELEMENT_THEORY = SGP/SGP4

EPOCH          = 2025-12-16T18:41:41.294688
MEAN_MOTION    = 14.22936119
ECCENTRICITY   = .0051777
INCLINATION    = 66.5121
RA_OF_ASC_NODE = 172.9720
ARG_OF_PERICENTER = 5.9799
MEAN_ANOMALY   = 354.1900

EPHEMERIS_TYPE = 0
CLASSIFICATION_TYPE = U
NORAD_CAT_ID   = 82458
ELEMENT_SET_NO = 999
REV_AT_EPOCH   = 61061
BSTAR          = .10465E-2
MEAN_MOTION_DOT = .2305E-4
MEAN_MOTION_DDOT = 0

CCSDS_OMM_VERS = 2.0
CREATION_DATE  = 
ORIGINATOR     = 

OBJECT_NAME    = UNKNOWN
OBJECT_ID      = 
CENTER_NAME    = EARTH
REF_FRAME      = TEME
TIME_SYSTEM    = UTC
MEAN_ELEMENT_THEORY = SGP/SGP4

EPOCH          = 2025-12-21T19:39:52.157088
MEAN_MOTION    = 13.55801448
ECCENTRICITY   = .004512
INCLINATION    = 99.3549
RA_OF_ASC_NODE = 16.9775
ARG_OF_PERICENTER = 171.3664
MEAN_ANOMALY   = 188.8260

EPHEMERIS_TYPE = 0
CLASSIFICATION_TYPE = U
NORAD_CAT_ID   = 82484
ELEMENT_SET_NO = 999
REV_AT_EPOCH   = 59186
BSTAR          = .32749E-3
MEAN_MOTION_DOT = .188E-5
MEAN_MOTION_DDOT = 0

CCSDS_OMM_VERS = 2.0
CREATION_DATE  = 
ORIGINATOR     = 

OBJECT_NAME    = UNKNOWN
OBJECT_ID      = 
CENTER_NAME    = EARTH
REF_FRAME      = TEME
TIME_SYSTEM    = UTC
MEAN_ELEMENT_THEORY = SGP/SGP4

EPOCH          = 2025-12-22T10:13:49.728000
MEAN_MOTION    = 14.86252922
ECCENTRICITY   = .0001472
INCLINATION    = 74.0090
RA_OF_ASC_NODE = 2.5279
ARG_OF_PERICENTER = 194.4083
MEAN_ANOMALY   = 165.7055

EPHEMERIS_TYPE = 0
CLASSIFICATION_TYPE = U
NORAD_CAT_ID   = 82494
ELEMENT_SET_NO = 999
REV_AT_EPOCH   = 8640
BSTAR          = .2342E-2
MEAN_MOTION_DOT = .20626E-3
MEAN_MOTION_DDOT = 0

CCSDS_OMM_VERS = 2.0
CREATION_DATE  = 
ORIGINATOR     = 

OBJECT_NAME    = UNKNOWN
OBJECT_ID      = 
CENTER_NAME    = EARTH
REF_FRAME      = TEME
TIME_SYSTEM    = UTC
MEAN_ELEMENT_THEORY = SGP/SGP4

EPOCH          = 2025-12-21T17:13:36.651648
MEAN_MOTION    = 14.18547544
ECCENTRICITY   = .0113105
INCLINATION    = 70.9676
RA_OF_ASC_NODE = 344.8510
ARG_OF_PERICENTER = 102.3936
MEAN_ANOMALY   = 258.9874

EPHEMERIS_TYPE = 0
CLASSIFICATION_TYPE = U
NORAD_CAT_ID   = 82500
ELEMENT_SET_NO = 999
REV_AT_EPOCH   = 62022
BSTAR          = .12986E-2
MEAN_MOTION_DOT = .2818E-4
MEAN_MOTION_DDOT = 0

